{
  "type": "FeatureCollection",
  "features": [
    {
      "type": "Feature",
      "properties": {
        "norad_id": 28054,
        "name": "DMSP 5D-3 F16 (USA 172)",
        "group": "weather",
        "lat": 61.035648548081134,
        "lon": -165.24394727531998,
        "alt_km": 841.9318020113142,
        "timestamp": "2025-12-06T16:45:42.369943+00:00",
        "meta_object_name": "DMSP 5D-3 F16 (USA 172)",
        "meta_object_id": "2003-048A",
        "meta_epoch": "2025-12-06T07:46:05.818944",
        "meta_mean_motion": 14.14420814,
        "meta_eccentricity": 0.00067558,
        "meta_inclination": 99.005,
        "meta_ra_of_asc_node": 357.7301,
        "meta_arg_of_pericenter": 340.6006,
        "meta_mean_anomaly": 29.9152,
        "meta_ephemeris_type": 0,
        "meta_classification_type": "U",
        "meta_norad_cat_id": 28054,
        "meta_element_set_no": 999,
        "meta_rev_at_epoch": 14222,
        "meta_bstar": 0.00017703518,
        "meta_mean_motion_dot": 2.93e-06,
        "meta_mean_motion_ddot": 0,
        "tle_line1": "1 28054U 03048A   25340.32367846  .00000293  00000+0  17704-3 0  9992",
        "tle_line2": "2 28054  99.0050 357.7301 0006755 340.6006  29.9152 14.14420814142220"
      },
      "geometry": {
        "type": "Point",
        "coordinates": [
          -165.24394727531998,
          61.035648548081134
        ]
      }
    },
    {
      "type": "Feature",
      "properties": {
        "norad_id": 28912,
        "name": "METEOSAT-9 (MSG-2)",
        "group": "weather",
        "lat": -6.092897262365454,
        "lon": 13.151459301483913,
        "alt_km": 35797.234889743544,
        "timestamp": "2025-12-06T16:45:42.369992+00:00",
        "meta_object_name": "METEOSAT-9 (MSG-2)",
        "meta_object_id": "2005-049B",
        "meta_epoch": "2025-12-05T20:45:39.436128",
        "meta_mean_motion": 1.00272635,
        "meta_eccentricity": 0.00040045,
        "meta_inclination": 8.9234,
        "meta_ra_of_asc_node": 56.0387,
        "meta_arg_of_pericenter": 187.5839,
        "meta_mean_anomaly": 188.3106,
        "meta_ephemeris_type": 0,
        "meta_classification_type": "U",
        "meta_norad_cat_id": 28912,
        "meta_element_set_no": 999,
        "meta_rev_at_epoch": 506,
        "meta_bstar": 0,
        "meta_mean_motion_dot": 1.28e-06,
        "meta_mean_motion_ddot": 0,
        "tle_line1": "1 28912U 05049B   25339.86503977  .00000128  00000+0  00000+0 0  9996",
        "tle_line2": "2 28912   8.9234  56.0387 0004004 187.5839 188.3106  1.00272635  5062"
      },
      "geometry": {
        "type": "Point",
        "coordinates": [
          13.151459301483913,
          -6.092897262365454
        ]
      }
    },
    {
      "type": "Feature",
      "properties": {
        "norad_id": 29522,
        "name": "DMSP 5D-3 F17 (USA 191)",
        "group": "weather",
        "lat": 46.54583519395558,
        "lon": -23.130292943868294,
        "alt_km": 844.8594118994752,
        "timestamp": "2025-12-06T16:45:42.370010+00:00",
        "meta_object_name": "DMSP 5D-3 F17 (USA 191)",
        "meta_object_id": "2006-050A",
        "meta_epoch": "2025-12-06T06:21:21.115872",
        "meta_mean_motion": 14.14915489,
        "meta_eccentricity": 0.00092203,
        "meta_inclination": 98.7393,
        "meta_ra_of_asc_node": 345.7887,
        "meta_arg_of_pericenter": 244.9129,
        "meta_mean_anomaly": 115.1088,
        "meta_ephemeris_type": 0,
        "meta_classification_type": "U",
        "meta_norad_cat_id": 29522,
        "meta_element_set_no": 999,
        "meta_rev_at_epoch": 98513,
        "meta_bstar": 0.00020563635,
        "meta_mean_motion_dot": 3.54e-06,
        "meta_mean_motion_ddot": 0,
        "tle_line1": "1 29522U 06050A   25340.26482773  .00000354  00000+0  20564-3 0  9995",
        "tle_line2": "2 29522  98.7393 345.7887 0009220 244.9129 115.1088 14.14915489985133"
      },
      "geometry": {
        "type": "Point",
        "coordinates": [
          -23.130292943868294,
          46.54583519395558
        ]
      }
    },
    {
      "type": "Feature",
      "properties": {
        "norad_id": 32958,
        "name": "FENGYUN 3A",
        "group": "weather",
        "lat": 21.25268274806852,
        "lon": -83.0491971459652,
        "alt_km": 823.1846805795212,
        "timestamp": "2025-12-06T16:45:42.370023+00:00",
        "meta_object_name": "FENGYUN 3A",
        "meta_object_id": "2008-026A",
        "meta_epoch": "2025-12-06T03:07:38.886816",
        "meta_mean_motion": 14.19511263,
        "meta_eccentricity": 0.00082177,
        "meta_inclination": 98.6687,
        "meta_ra_of_asc_node": 279.7965,
        "meta_arg_of_pericenter": 330.9356,
        "meta_mean_anomaly": 29.1362,
        "meta_ephemeris_type": 0,
        "meta_classification_type": "U",
        "meta_norad_cat_id": 32958,
        "meta_element_set_no": 999,
        "meta_rev_at_epoch": 90801,
        "meta_bstar": 0.00012864534,
        "meta_mean_motion_dot": 2.28e-06,
        "meta_mean_motion_ddot": 0,
        "tle_line1": "1 32958U 08026A   25340.13031119  .00000228  00000+0  12865-3 0  9992",
        "tle_line2": "2 32958  98.6687 279.7965 0008217 330.9356  29.1362 14.19511263908019"
      },
      "geometry": {
        "type": "Point",
        "coordinates": [
          -83.0491971459652,
          21.25268274806852
        ]
      }
    },
    {
      "type": "Feature",
      "properties": {
        "norad_id": 35491,
        "name": "GOES 14",
        "group": "weather",
        "lat": 0.8371698434041122,
        "lon": -141.17668234512493,
        "alt_km": 35769.035001383425,
        "timestamp": "2025-12-06T16:45:42.370037+00:00",
        "meta_object_name": "GOES 14",
        "meta_object_id": "2009-033A",
        "meta_epoch": "2025-12-06T07:46:41.533248",
        "meta_mean_motion": 1.00272844,
        "meta_eccentricity": 0.00041817,
        "meta_inclination": 1.1818,
        "meta_ra_of_asc_node": 85.4843,
        "meta_arg_of_pericenter": 153.1267,
        "meta_mean_anomaly": 205.1076,
        "meta_ephemeris_type": 0,
        "meta_classification_type": "U",
        "meta_norad_cat_id": 35491,
        "meta_element_set_no": 999,
        "meta_rev_at_epoch": 465,
        "meta_bstar": 0,
        "meta_mean_motion_dot": -6.1e-07,
        "meta_mean_motion_ddot": 0,
        "tle_line1": "1 35491U 09033A   25340.32409182 -.00000061  00000+0  00000+0 0  9996",
        "tle_line2": "2 35491   1.1818  85.4843 0004181 153.1267 205.1076  1.00272844  4658"
      },
      "geometry": {
        "type": "Point",
        "coordinates": [
          -141.17668234512493,
          0.8371698434041122
        ]
      }
    },
    {
      "type": "Feature",
      "properties": {
        "norad_id": 35951,
        "name": "DMSP 5D-3 F18 (USA 210)",
        "group": "weather",
        "lat": -78.16254371512295,
        "lon": 5.385835595314864,
        "alt_km": 858.676568262109,
        "timestamp": "2025-12-06T16:45:42.370050+00:00",
        "meta_object_name": "DMSP 5D-3 F18 (USA 210)",
        "meta_object_id": "2009-057A",
        "meta_epoch": "2025-12-06T05:16:06.901248",
        "meta_mean_motion": 14.14763128,
        "meta_eccentricity": 0.00121209,
        "meta_inclination": 98.8826,
        "meta_ra_of_asc_node": 316.6532,
        "meta_arg_of_pericenter": 79.7012,
        "meta_mean_anomaly": 280.5527,
        "meta_ephemeris_type": 0,
        "meta_classification_type": "U",
        "meta_norad_cat_id": 35951,
        "meta_element_set_no": 999,
        "meta_rev_at_epoch": 83230,
        "meta_bstar": 0.00023730606,
        "meta_mean_motion_dot": 4.13e-06,
        "meta_mean_motion_ddot": 0,
        "tle_line1": "1 35951U 09057A   25340.21952432  .00000413  00000+0  23731-3 0  9992",
        "tle_line2": "2 35951  98.8826 316.6532 0012120  79.7012 280.5527 14.14763128832306"
      },
      "geometry": {
        "type": "Point",
        "coordinates": [
          5.385835595314864,
          -78.16254371512295
        ]
      }
    },
    {
      "type": "Feature",
      "properties": {
        "norad_id": 36411,
        "name": "EWS-G2 (GOES 15)",
        "group": "weather",
        "lat": -0.6513315595384157,
        "lon": 28.668962431469044,
        "alt_km": 35803.91577869111,
        "timestamp": "2025-12-06T16:45:42.370064+00:00",
        "meta_object_name": "EWS-G2 (GOES 15)",
        "meta_object_id": "2010-008A",
        "meta_epoch": "2025-12-05T21:34:38.508384",
        "meta_mean_motion": 1.00268214,
        "meta_eccentricity": 0.000603,
        "meta_inclination": 0.7962,
        "meta_ra_of_asc_node": 86.0409,
        "meta_arg_of_pericenter": 171.4967,
        "meta_mean_anomaly": 202.5422,
        "meta_ephemeris_type": 0,
        "meta_classification_type": "U",
        "meta_norad_cat_id": 36411,
        "meta_element_set_no": 999,
        "meta_rev_at_epoch": 5770,
        "meta_bstar": 0,
        "meta_mean_motion_dot": 4.7e-07,
        "meta_mean_motion_ddot": 0,
        "tle_line1": "1 36411U 10008A   25339.89905681  .00000047  00000+0  00000+0 0  9991",
        "tle_line2": "2 36411   0.7962  86.0409 0006030 171.4967 202.5422  1.00268214 57702"
      },
      "geometry": {
        "type": "Point",
        "coordinates": [
          28.668962431469044,
          -0.6513315595384157
        ]
      }
    }
  ]
}